[{"OBJECT_NAME":"CSTP 1.2 (STC 1.2)","OBJECT_ID":"2023-091W","EPOCH":"2026-03-09T23:12:27.821952","MEAN_MOTION":15.2718076,"ECCENTRICITY":0.00204388,"INCLINATION":97.5258,"RA_OF_ASC_NODE":134.3262,"ARG_OF_PERICENTER":84.9592,"MEAN_ANOMALY":275.3979,"EPHEMERIS_TYPE":0,"CLASSIFICATION_TYPE":"U","NORAD_CAT_ID":57186,"ELEMENT_SET_NO":999,"REV_AT_EPOCH":14930,"BSTAR":0.00043035718,"MEAN_MOTION_DOT":0.00011466,"MEAN_MOTION_DDOT":0},{"OBJECT_NAME":"STARLINK-32163","OBJECT_ID":"2024-131H","EPOCH":"2026-03-09T06:11:52.383552","MEAN_MOTION":15.30181151,"ECCENTRICITY":0.0001361,"INCLINATION":53.1598,"RA_OF_ASC_NODE":54.3553,"ARG_OF_PERICENTER":94.2219,"MEAN_ANOMALY":265.8937,"EPHEMERIS_TYPE":0,"CLASSIFICATION_TYPE":"U","NORAD_CAT_ID":60262,"ELEMENT_SET_NO":999,"REV_AT_EPOCH":9165,"BSTAR":0.00022064839,"MEAN_MOTION_DOT":6.177e-5,"MEAN_MOTION_DDOT":0}]
